{
  "type": "FeatureCollection",
  "features": [
    {
      "type": "Feature",
      "properties": {
        "norad_id": 67018,
        "name": "STARLINK-36106",
        "group": "last-30-days",
        "lat": -3.181465223065055,
        "lon": -76.85902121728107,
        "alt_km": 352.2644167779681,
        "timestamp": "2025-12-26T09:30:52.344517+00:00",
        "meta_object_name": "STARLINK-36106",
        "meta_object_id": "2025-293R",
        "meta_epoch": "2025-12-26T04:00:01.998720",
        "meta_mean_motion": 15.74084819,
        "meta_eccentricity": 0.0003499,
        "meta_inclination": 69.995,
        "meta_ra_of_asc_node": 284.9507,
        "meta_arg_of_pericenter": 274.5327,
        "meta_mean_anomaly": 220.9769,
        "meta_ephemeris_type": 0,
        "meta_classification_type": "U",
        "meta_norad_cat_id": 67018,
        "meta_element_set_no": 999,
        "meta_rev_at_epoch": 237,
        "meta_bstar": -0.012762,
        "meta_mean_motion_dot": -0.01627074,
        "meta_mean_motion_ddot": 0,
        "tle_line1": "1 67018U 25293R   25360.16668980 -.01627074  00000+0 -12762-1 0  9990",
        "tle_line2": "2 67018  69.9950 284.9507 0003499 274.5327 220.9769 15.74084819  2376"
      },
      "geometry": {
        "type": "Point",
        "coordinates": [
          -76.85902121728107,
          -3.181465223065055
        ]
      }
    },
    {
      "type": "Feature",
      "properties": {
        "norad_id": 67019,
        "name": "STARLINK-35688",
        "group": "last-30-days",
        "lat": -1.1304272960055668,
        "lon": -76.11334698245986,
        "alt_km": 352.2404521219496,
        "timestamp": "2025-12-26T09:30:52.344526+00:00",
        "meta_object_name": "STARLINK-35688",
        "meta_object_id": "2025-293S",
        "meta_epoch": "2025-12-26T04:00:01.998720",
        "meta_mean_motion": 15.74075656,
        "meta_eccentricity": 0.0003435,
        "meta_inclination": 69.9947,
        "meta_ra_of_asc_node": 284.9479,
        "meta_arg_of_pericenter": 271.9132,
        "meta_mean_anomaly": 225.7887,
        "meta_ephemeris_type": 0,
        "meta_classification_type": "U",
        "meta_norad_cat_id": 67019,
        "meta_element_set_no": 999,
        "meta_rev_at_epoch": 246,
        "meta_bstar": -0.012822,
        "meta_mean_motion_dot": -0.01633288,
        "meta_mean_motion_ddot": 0,
        "tle_line1": "1 67019U 25293S   25360.16668980 -.01633288  00000+0 -12822-1 0  9992",
        "tle_line2": "2 67019  69.9947 284.9479 0003435 271.9132 225.7887 15.74075656  2469"
      },
      "geometry": {
        "type": "Point",
        "coordinates": [
          -76.11334698245986,
          -1.1304272960055668
        ]
      }
    },
    {
      "type": "Feature",
      "properties": {
        "norad_id": 67020,
        "name": "STARLINK-36172",
        "group": "last-30-days",
        "lat": 1.2423955211043531,
        "lon": -75.25127097058612,
        "alt_km": 352.0385880224103,
        "timestamp": "2025-12-26T09:30:52.344536+00:00",
        "meta_object_name": "STARLINK-36172",
        "meta_object_id": "2025-293T",
        "meta_epoch": "2025-12-26T04:00:01.998720",
        "meta_mean_motion": 15.74048522,
        "meta_eccentricity": 0.0003558,
        "meta_inclination": 69.9948,
        "meta_ra_of_asc_node": 284.9453,
        "meta_arg_of_pericenter": 273.5459,
        "meta_mean_anomaly": 226.7022,
        "meta_ephemeris_type": 0,
        "meta_classification_type": "U",
        "meta_norad_cat_id": 67020,
        "meta_element_set_no": 999,
        "meta_rev_at_epoch": 238,
        "meta_bstar": -0.01285,
        "meta_mean_motion_dot": -0.01634786,
        "meta_mean_motion_ddot": 0,
        "tle_line1": "1 67020U 25293T   25360.16668980 -.01634786  00000+0 -12850-1 0  9999",
        "tle_line2": "2 67020  69.9948 284.9453 0003558 273.5459 226.7022 15.74048522  2385"
      },
      "geometry": {
        "type": "Point",
        "coordinates": [
          -75.25127097058612,
          1.2423955211043531
        ]
      }
    },
    {
      "type": "Feature",
      "properties": {
        "norad_id": 67021,
        "name": "STARLINK-36184",
        "group": "last-30-days",
        "lat": 3.475924821447779,
        "lon": -74.43901379189968,
        "alt_km": 351.99485407389784,
        "timestamp": "2025-12-26T09:30:52.344546+00:00",
        "meta_object_name": "STARLINK-36184",
        "meta_object_id": "2025-293U",
        "meta_epoch": "2025-12-26T04:00:01.998720",
        "meta_mean_motion": 15.74022989,
        "meta_eccentricity": 0.0003402,
        "meta_inclination": 69.9951,
        "meta_ra_of_asc_node": 284.9422,
        "meta_arg_of_pericenter": 271.1615,
        "meta_mean_anomaly": 231.4852,
        "meta_ephemeris_type": 0,
        "meta_classification_type": "U",
        "meta_norad_cat_id": 67021,
        "meta_element_set_no": 999,
        "meta_rev_at_epoch": 238,
        "meta_bstar": -0.012824,
        "meta_mean_motion_dot": -0.0163014,
        "meta_mean_motion_ddot": 0,
        "tle_line1": "1 67021U 25293U   25360.16668980 -.01630140  00000+0 -12824-1 0  9991",
        "tle_line2": "2 67021  69.9951 284.9422 0003402 271.1615 231.4852 15.74022989  2385"
      },
      "geometry": {
        "type": "Point",
        "coordinates": [
          -74.43901379189968,
          3.475924821447779
        ]
      }
    },
    {
      "type": "Feature",
      "properties": {
        "norad_id": 67022,
        "name": "STARLINK-36209",
        "group": "last-30-days",
        "lat": 5.946019021000515,
        "lon": -73.53631864128313,
        "alt_km": 351.8541931824175,
        "timestamp": "2025-12-26T09:30:52.344560+00:00",
        "meta_object_name": "STARLINK-36209",
        "meta_object_id": "2025-293V",
        "meta_epoch": "2025-12-26T04:00:01.998720",
        "meta_mean_motion": 15.73988764,
        "meta_eccentricity": 0.0003481,
        "meta_inclination": 69.9945,
        "meta_ra_of_asc_node": 284.9382,
        "meta_arg_of_pericenter": 271.2061,
        "meta_mean_anomaly": 234.0974,
        "meta_ephemeris_type": 0,
        "meta_classification_type": "U",
        "meta_norad_cat_id": 67022,
        "meta_element_set_no": 999,
        "meta_rev_at_epoch": 238,
        "meta_bstar": -0.012851,
        "meta_mean_motion_dot": -0.01631114,
        "meta_mean_motion_ddot": 0,
        "tle_line1": "1 67022U 25293V   25360.16668980 -.01631114  00000+0 -12851-1 0  9994",
        "tle_line2": "2 67022  69.9945 284.9382 0003481 271.2061 234.0974 15.73988764  2382"
      },
      "geometry": {
        "type": "Point",
        "coordinates": [
          -73.53631864128313,
          5.946019021000515
        ]
      }
    },
    {
      "type": "Feature",
      "properties": {
        "norad_id": 67023,
        "name": "STARLINK-36191",
        "group": "last-30-days",
        "lat": 8.121824874687274,
        "lon": -72.73435284190303,
        "alt_km": 351.68073661282233,
        "timestamp": "2025-12-26T09:30:52.344570+00:00",
        "meta_object_name": "STARLINK-36191",
        "meta_object_id": "2025-293W",
        "meta_epoch": "2025-12-26T04:00:01.998720",
        "meta_mean_motion": 15.73971205,
        "meta_eccentricity": 0.0003518,
        "meta_inclination": 69.9944,
        "meta_ra_of_asc_node": 284.9344,
        "meta_arg_of_pericenter": 271.4479,
        "meta_mean_anomaly": 236.1874,
        "meta_ephemeris_type": 0,
        "meta_classification_type": "U",
        "meta_norad_cat_id": 67023,
        "meta_element_set_no": 999,
        "meta_rev_at_epoch": 226,
        "meta_bstar": -0.012883,
        "meta_mean_motion_dot": -0.0163363,
        "meta_mean_motion_ddot": 0,
        "tle_line1": "1 67023U 25293W   25360.16668980 -.01633630  00000+0 -12883-1 0  9995",
        "tle_line2": "2 67023  69.9944 284.9344 0003518 271.4479 236.1874 15.73971205  2267"
      },
      "geometry": {
        "type": "Point",
        "coordinates": [
          -72.73435284190303,
          8.121824874687274
        ]
      }
    },
    {
      "type": "Feature",
      "properties": {
        "norad_id": 67024,
        "name": "STARLINK-36192",
        "group": "last-30-days",
        "lat": 10.465268649019272,
        "lon": -71.85775653164279,
        "alt_km": 351.7172440056602,
        "timestamp": "2025-12-26T09:30:52.344580+00:00",
        "meta_object_name": "STARLINK-36192",
        "meta_object_id": "2025-293X",
        "meta_epoch": "2025-12-25T22:00:01.999584",
        "meta_mean_motion": 15.74882107,
        "meta_eccentricity": 0.00033946,
        "meta_inclination": 69.9944,
        "meta_ra_of_asc_node": 285.6399,
        "meta_arg_of_pericenter": 264.5484,
        "meta_mean_anomaly": 269.0689,
        "meta_ephemeris_type": 0,
        "meta_classification_type": "U",
        "meta_norad_cat_id": 67024,
        "meta_element_set_no": 999,
        "meta_rev_at_epoch": 234,
        "meta_bstar": -0.012863097,
        "meta_mean_motion_dot": -0.01689798,
        "meta_mean_motion_ddot": 0,
        "tle_line1": "1 67024U 25293X   25359.91668981 -.01689798  00000+0 -12863-1 0  9992",
        "tle_line2": "2 67024  69.9944 285.6399 0003394 264.5484 269.0689 15.74882107  2348"
      },
      "geometry": {
        "type": "Point",
        "coordinates": [
          -71.85775653164279,
          10.465268649019272
        ]
      }
    }
  ]
}